{"type": "FeatureCollection", "license": "CC-BY-4.0 derived from ESA Copernicus Sentinel-2; OlmoEarth v1 Base (Ai2)", "claim": "review priority from pooled three-pair ordinary-change calibration \u2014 not damage, cause, area, or probability", "contract": {"score": "1 - cosine(z_before, z_after)", "ordinary_threshold": "pooled p99 from three non-event fortnight transitions", "minimum_observable_fraction_for_lead": 0.4, "lead_deduplication": "one lead per place name"}, "name": "olmoearth_nepal_rasuwa_2026_observable_windows", "features": [{"type": "Feature", "properties": {"id": "v003", "rank": 1, "status": "ranked", "candidate_token_frac": 0.1331168831168831, "candidate_token_count": 470, "d_event_mean": 0.2569426894187927, "d_placebo_mean": 0.10326941311359406, "valid_event_frac": 0.451171875, "kind": "river", "center_lonlat": [85.361097, 28.2255196], "rank_single_pair": 1, "candidate_token_frac_single_pair": 0.25432900432900435, "rank_pooled3": 1, "candidate_token_frac_pooled3": 0.1331168831168831, "place": "Dalphedi, Gosaikunda", "review_status": "lead", "review_rank": 1}, "geometry": {"type": "Polygon", "coordinates": [[[85.348235, 28.213813], [85.374312, 28.214125], [85.373962, 28.237225], [85.347879, 28.236912], [85.348235, 28.213813]]]}}, {"type": "Feature", "properties": {"id": "v025", "rank": 2, "status": "ranked", "candidate_token_frac": 0.1316994344196068, "candidate_token_count": 667, "d_event_mean": 0.18391652405261993, "d_placebo_mean": 0.11969434469938278, "valid_event_frac": 0.906494140625, "kind": "river", "center_lonlat": [85.1762602, 27.9649438], "rank_single_pair": 3, "candidate_token_frac_single_pair": 0.17963910584433074, "rank_pooled3": 2, "candidate_token_frac_pooled3": 0.1316994344196068, "place": "Bhainse, Bidur", "review_status": "lead", "review_rank": 2}, "geometry": {"type": "Polygon", "coordinates": [[[85.163448, 27.953222], [85.189461, 27.953566], [85.189075, 27.976665], [85.163057, 27.97632], [85.163448, 27.953222]]]}}, {"type": "Feature", "properties": {"id": "v064", "rank": 3, "status": "ranked", "candidate_token_frac": 0.11852704257767549, "candidate_token_count": 167, "d_event_mean": 0.22466416656970978, "d_placebo_mean": 0.1354658305644989, "valid_event_frac": 0.212158203125, "kind": "hillslope", "center_lonlat": [85.46621680097404, 28.345225889574237], "rank_single_pair": 2, "candidate_token_frac_single_pair": 0.19217491369390102, "rank_pooled3": 3, "candidate_token_frac_pooled3": 0.11852704257767549, "place": "Sal\u00ea", "review_status": "reobserve", "review_rank": null}, "geometry": {"type": "Polygon", "coordinates": [[[85.453329, 28.333528], [85.479437, 28.333822], [85.479108, 28.356922], [85.452994, 28.356629], [85.453329, 28.333528]]]}}, {"type": "Feature", "properties": {"id": "v024", "rank": 4, "status": "ranked", "candidate_token_frac": 0.10683870967741936, "candidate_token_count": 567, "d_event_mean": 0.1627393662929535, "d_placebo_mean": 0.10497783124446869, "valid_event_frac": 0.946044921875, "kind": "river", "center_lonlat": [85.1815317, 27.9786895], "rank_single_pair": 4, "candidate_token_frac_single_pair": 0.1463225806451613, "rank_pooled3": 4, "candidate_token_frac_pooled3": 0.10683870967741936, "place": "Naubisephat, Uttargaya", "review_status": "lead", "review_rank": 3}, "geometry": {"type": "Polygon", "coordinates": [[[85.168718, 27.966968], [85.194733, 27.967312], [85.194349, 27.99041], [85.168327, 27.990066], [85.168718, 27.966968]]]}}, {"type": "Feature", "properties": {"id": "v041", "rank": 5, "status": "ranked", "candidate_token_frac": 0.08248587570621468, "candidate_token_count": 106, "d_event_mean": 0.19782942533493042, "d_placebo_mean": 0.1513494998216629, "valid_event_frac": 0.216064453125, "kind": "lhende", "center_lonlat": [85.39213960269319, 28.276056586875097], "rank_single_pair": 8, "candidate_token_frac_single_pair": 0.11977401129943503, "rank_pooled3": 5, "candidate_token_frac_pooled3": 0.08248587570621468, "place": "Rasuwa Gadhi, Gosaikunda", "review_status": "reobserve", "review_rank": null}, "geometry": {"type": "Polygon", "coordinates": [[[85.379268, 28.264353], [85.405358, 28.26466], [85.405014, 28.28776], [85.378918, 28.287452], [85.379268, 28.264353]]]}}, {"type": "Feature", "properties": {"id": "v027", "rank": 6, "status": "ranked", "candidate_token_frac": 0.08098318240620957, "candidate_token_count": 401, "d_event_mean": 0.1454230099916458, "d_placebo_mean": 0.09091983735561371, "valid_event_frac": 0.943603515625, "kind": "river", "center_lonlat": [85.1552937, 27.9336297], "rank_single_pair": 15, "candidate_token_frac_single_pair": 0.103751617076326, "rank_pooled3": 6, "candidate_token_frac_pooled3": 0.08098318240620957, "place": "Bidur", "review_status": "lead", "review_rank": 4}, "geometry": {"type": "Polygon", "coordinates": [[[85.142488, 27.921906], [85.168492, 27.922254], [85.168103, 27.945352], [85.142092, 27.945004], [85.142488, 27.921906]]]}}, {"type": "Feature", "properties": {"id": "v031", "rank": 7, "status": "ranked", "candidate_token_frac": 0.07981342316662347, "candidate_token_count": 531, "d_event_mean": 0.20114029943943024, "d_placebo_mean": 0.15569032728672028, "valid_event_frac": 0.942138671875, "kind": "river", "center_lonlat": [85.122178, 27.8735468], "rank_single_pair": 6, "candidate_token_frac_single_pair": 0.13760041461518527, "rank_pooled3": 7, "candidate_token_frac_pooled3": 0.07981342316662347, "place": "Bidur, Bidur", "review_status": "screened", "review_rank": null}, "geometry": {"type": "Polygon", "coordinates": [[[85.109382, 27.86182], [85.135372, 27.862174], [85.134976, 27.885272], [85.108981, 27.884918], [85.109382, 27.86182]]]}}, {"type": "Feature", "properties": {"id": "v029", "rank": 8, "status": "ranked", "candidate_token_frac": 0.0786967418546366, "candidate_token_count": 416, "d_event_mean": 0.15554217994213104, "d_placebo_mean": 0.09384529292583466, "valid_event_frac": 0.97412109375, "kind": "river", "center_lonlat": [85.140436, 27.9173553], "rank_single_pair": 14, "candidate_token_frac_single_pair": 0.10426065162907268, "rank_pooled3": 8, "candidate_token_frac_pooled3": 0.0786967418546366, "place": "Bidur, Bidur", "review_status": "screened", "review_rank": null}, "geometry": {"type": "Polygon", "coordinates": [[[85.127633, 27.90563], [85.153634, 27.905981], [85.153241, 27.929079], [85.127235, 27.928728], [85.127633, 27.90563]]]}}, {"type": "Feature", "properties": {"id": "v022", "rank": 9, "status": "ranked", "candidate_token_frac": 0.07295774647887324, "candidate_token_count": 406, "d_event_mean": 0.16348980367183685, "d_placebo_mean": 0.08850929886102676, "valid_event_frac": 0.86669921875, "kind": "river", "center_lonlat": [85.1846652, 28.0133953], "rank_single_pair": 10, "candidate_token_frac_single_pair": 0.1143661971830986, "rank_pooled3": 9, "candidate_token_frac_pooled3": 0.07295774647887324, "place": "Shanti Bazar, Kispang", "review_status": "lead", "review_rank": 5}, "geometry": {"type": "Polygon", "coordinates": [[[85.171847, 28.001674], [85.197871, 28.002017], [85.197486, 28.025116], [85.171457, 28.024772], [85.171847, 28.001674]]]}}, {"type": "Feature", "properties": {"id": "v002", "rank": 10, "status": "ranked", "candidate_token_frac": 0.0713417105796514, "candidate_token_count": 346, "d_event_mean": 0.21477912366390228, "d_placebo_mean": 0.11853685230016708, "valid_event_frac": 0.602294921875, "kind": "river", "center_lonlat": [85.3581813, 28.2411955], "rank_single_pair": 5, "candidate_token_frac_single_pair": 0.14025131738954194, "rank_pooled3": 10, "candidate_token_frac_pooled3": 0.0713417105796514, "place": "Timure, Gosaikunda", "review_status": "lead", "review_rank": 6}, "geometry": {"type": "Polygon", "coordinates": [[[85.345317, 28.229489], [85.371399, 28.229802], [85.371048, 28.252901], [85.344961, 28.252588], [85.345317, 28.229489]]]}}, {"type": "Feature", "properties": {"id": "v030", "rank": 11, "status": "ranked", "candidate_token_frac": 0.0660828025477707, "candidate_token_count": 442, "d_event_mean": 0.21086013317108154, "d_placebo_mean": 0.14349181950092316, "valid_event_frac": 0.919921875, "kind": "river", "center_lonlat": [85.1358053, 27.8934901], "rank_single_pair": 9, "candidate_token_frac_single_pair": 0.1173036093418259, "rank_pooled3": 11, "candidate_token_frac_pooled3": 0.0660828025477707, "place": "Bidur, Bidur", "review_status": "screened", "review_rank": null}, "geometry": {"type": "Polygon", "coordinates": [[[85.123006, 27.881765], [85.149001, 27.882116], [85.148607, 27.905214], [85.122607, 27.904863], [85.123006, 27.881765]]]}}, {"type": "Feature", "properties": {"id": "v026", "rank": 12, "status": "ranked", "candidate_token_frac": 0.06418219461697723, "candidate_token_count": 322, "d_event_mean": 0.14209167659282684, "d_placebo_mean": 0.09037141501903534, "valid_event_frac": 0.943359375, "kind": "river", "center_lonlat": [85.1618866, 27.9544913], "rank_single_pair": 20, "candidate_token_frac_single_pair": 0.08333333333333333, "rank_pooled3": 12, "candidate_token_frac_pooled3": 0.06418219461697723, "place": "Bhainse, Bidur", "review_status": "screened", "review_rank": null}, "geometry": {"type": "Polygon", "coordinates": [[[85.149077, 27.942768], [85.175087, 27.943115], [85.174699, 27.966214], [85.148683, 27.965866], [85.149077, 27.942768]]]}}, {"type": "Feature", "properties": {"id": "v021", "rank": 13, "status": "ranked", "candidate_token_frac": 0.06080611535788742, "candidate_token_count": 304, "d_event_mean": 0.17352977395057678, "d_placebo_mean": 0.09726396203041077, "valid_event_frac": 0.70263671875, "kind": "river", "center_lonlat": [85.1900736, 28.0259415], "rank_single_pair": 13, "candidate_token_frac_single_pair": 0.10562890896455872, "rank_pooled3": 13, "candidate_token_frac_pooled3": 0.06080611535788742, "place": "Uttargaya, Uttargaya", "review_status": "screened", "review_rank": null}, "geometry": {"type": "Polygon", "coordinates": [[[85.177253, 28.01422], [85.20328, 28.014563], [85.202897, 28.037662], [85.176864, 28.037318], [85.177253, 28.01422]]]}}, {"type": "Feature", "properties": {"id": "v023", "rank": 14, "status": "ranked", "candidate_token_frac": 0.060211554109031735, "candidate_token_count": 341, "d_event_mean": 0.14501939713954926, "d_placebo_mean": 0.08926485478878021, "valid_event_frac": 0.900146484375, "kind": "river", "center_lonlat": [85.1838676, 28.0014652], "rank_single_pair": 18, "candidate_token_frac_single_pair": 0.0924871168972064, "rank_pooled3": 14, "candidate_token_frac_pooled3": 0.060211554109031735, "place": "Karki Gaun, Kispang", "review_status": "screened", "review_rank": null}, "geometry": {"type": "Polygon", "coordinates": [[[85.171051, 27.989744], [85.197072, 27.990087], [85.196687, 28.013186], [85.170661, 28.012842], [85.171051, 27.989744]]]}}, {"type": "Feature", "properties": {"id": "v056", "rank": 15, "status": "ranked", "candidate_token_frac": 0.057754010695187166, "candidate_token_count": 123, "d_event_mean": 0.21180787682533264, "d_placebo_mean": 0.16006344556808472, "valid_event_frac": 0.228271484375, "kind": "hillslope", "center_lonlat": [85.44044330657674, 28.321829560973345], "rank_single_pair": 7, "candidate_token_frac_single_pair": 0.13155080213903744, "rank_pooled3": 15, "candidate_token_frac_pooled3": 0.057754010695187166, "place": "Gosaikunda", "review_status": "screened", "review_rank": null}, "geometry": {"type": "Polygon", "coordinates": [[[85.427561, 28.31013], [85.453663, 28.310428], [85.453329, 28.333528], [85.427221, 28.33323], [85.427561, 28.31013]]]}}, {"type": "Feature", "properties": {"id": "v028", "rank": 16, "status": "ranked", "candidate_token_frac": 0.05541624874623872, "candidate_token_count": 268, "d_event_mean": 0.10289616137742996, "d_placebo_mean": 0.07100670039653778, "valid_event_frac": 0.9736328125, "kind": "river", "center_lonlat": [85.1511333, 27.9249894], "rank_single_pair": 29, "candidate_token_frac_single_pair": 0.06720160481444333, "rank_pooled3": 16, "candidate_token_frac_pooled3": 0.05541624874623872, "place": "Bidur, Bidur", "review_status": "screened", "review_rank": null}, "geometry": {"type": "Polygon", "coordinates": [[[85.138329, 27.913265], [85.164331, 27.913614], [85.163941, 27.936712], [85.137933, 27.936363], [85.138329, 27.913265]]]}}, {"type": "Feature", "properties": {"id": "v034", "rank": 17, "status": "ranked", "candidate_token_frac": 0.05112881806108898, "candidate_token_count": 289, "d_event_mean": 0.1780288964509964, "d_placebo_mean": 0.14766258001327515, "valid_event_frac": 0.7353515625, "kind": "river", "center_lonlat": [85.0577965, 27.8586913], "rank_single_pair": 17, "candidate_token_frac_single_pair": 0.09594953519256308, "rank_pooled3": 17, "candidate_token_frac_pooled3": 0.05112881806108898, "place": "Ratmate, Belkotgadhi", "review_status": "screened", "review_rank": null}, "geometry": {"type": "Polygon", "coordinates": [[[85.04501, 27.846959], [85.070995, 27.847325], [85.070586, 27.870422], [85.044595, 27.870056], [85.04501, 27.846959]]]}}, {"type": "Feature", "properties": {"id": "v020", "rank": 18, "status": "ranked", "candidate_token_frac": 0.04972138876982426, "candidate_token_count": 187, "d_event_mean": 0.16251450777053833, "d_placebo_mean": 0.11543677002191544, "valid_event_frac": 0.569580078125, "kind": "river", "center_lonlat": [85.1937336, 28.0369598], "rank_single_pair": 23, "candidate_token_frac_single_pair": 0.08015430775825118, "rank_pooled3": 18, "candidate_token_frac_pooled3": 0.04972138876982426, "place": "Uttargaya, Uttargaya", "review_status": "screened", "review_rank": null}, "geometry": {"type": "Polygon", "coordinates": [[[85.180912, 28.025239], [85.206941, 28.025581], [85.206558, 28.04868], [85.180523, 28.048337], [85.180912, 28.025239]]]}}, {"type": "Feature", "properties": {"id": "v004", "rank": 19, "status": "ranked", "candidate_token_frac": 0.048886948930597994, "candidate_token_count": 224, "d_event_mean": 0.18584102392196655, "d_placebo_mean": 0.09911609441041946, "valid_event_frac": 0.559326171875, "kind": "river", "center_lonlat": [85.3542477, 28.2088826], "rank_single_pair": 16, "candidate_token_frac_single_pair": 0.09777389786119599, "rank_pooled3": 19, "candidate_token_frac_pooled3": 0.048886948930597994, "place": "Thuman, Gosaikunda", "review_status": "screened", "review_rank": null}, "geometry": {"type": "Polygon", "coordinates": [[[85.341388, 28.197175], [85.367462, 28.197489], [85.36711, 28.220589], [85.341031, 28.220275], [85.341388, 28.197175]]]}}, {"type": "Feature", "properties": {"id": "v057", "rank": 20, "status": "ranked", "candidate_token_frac": 0.04784366576819407, "candidate_token_count": 123, "d_event_mean": 0.2021258920431137, "d_placebo_mean": 0.11609774827957153, "valid_event_frac": 0.3623046875, "kind": "hillslope", "center_lonlat": [85.44010591501316, 28.344929720822858], "rank_single_pair": 21, "candidate_token_frac_single_pair": 0.08288409703504043, "rank_pooled3": 20, "candidate_token_frac_pooled3": 0.04784366576819407, "place": "Chaggang", "review_status": "screened", "review_rank": null}, "geometry": {"type": "Polygon", "coordinates": [[[85.427221, 28.33323], [85.453329, 28.333528], [85.452994, 28.356629], [85.42688, 28.35633], [85.427221, 28.33323]]]}}, {"type": "Feature", "properties": {"id": "v032", "rank": 21, "status": "ranked", "candidate_token_frac": 0.04702444208289054, "candidate_token_count": 408, "d_event_mean": 0.20137833058834076, "d_placebo_mean": 0.16953104734420776, "valid_event_frac": 0.9189453125, "kind": "river", "center_lonlat": [85.1103283, 27.8618254], "rank_single_pair": 11, "candidate_token_frac_single_pair": 0.10839532412327312, "rank_pooled3": 21, "candidate_token_frac_pooled3": 0.04702444208289054, "place": "Bidur, Bidur", "review_status": "screened", "review_rank": null}, "geometry": {"type": "Polygon", "coordinates": [[[85.097535, 27.850098], [85.123522, 27.850454], [85.123124, 27.873552], [85.097132, 27.873195], [85.097535, 27.850098]]]}}, {"type": "Feature", "properties": {"id": "v000", "rank": 22, "status": "ranked", "candidate_token_frac": 0.046608214120904476, "candidate_token_count": 170, "d_event_mean": 0.1764376312494278, "d_placebo_mean": 0.13552454113960266, "valid_event_frac": 0.529052734375, "kind": "river", "center_lonlat": [85.3769971, 28.2780537], "rank_single_pair": 25, "candidate_token_frac_single_pair": 0.07844946931241348, "rank_pooled3": 22, "candidate_token_frac_pooled3": 0.046608214120904476, "place": "Rasuwa Gadhi, Gosaikunda", "review_status": "screened", "review_rank": null}, "geometry": {"type": "Polygon", "coordinates": [[[85.364127, 28.266348], [85.390218, 28.266658], [85.38987, 28.289758], [85.363774, 28.289448], [85.364127, 28.266348]]]}}, {"type": "Feature", "properties": {"id": "v019", "rank": 23, "status": "ranked", "candidate_token_frac": 0.04496208017334778, "candidate_token_count": 162, "d_event_mean": 0.1796252429485321, "d_placebo_mean": 0.14973075687885284, "valid_event_frac": 0.45068359375, "kind": "river", "center_lonlat": [85.2024736, 28.0484558], "rank_single_pair": 19, "candidate_token_frac_single_pair": 0.08775731310942579, "rank_pooled3": 23, "candidate_token_frac_pooled3": 0.04496208017334778, "place": "Chipleti, Uttargaya", "review_status": "screened", "review_rank": null}, "geometry": {"type": "Polygon", "coordinates": [[[85.189649, 28.036736], [85.215682, 28.037076], [85.215301, 28.060175], [85.189262, 28.059834], [85.189649, 28.036736]]]}}, {"type": "Feature", "properties": {"id": "v039", "rank": 24, "status": "ranked", "candidate_token_frac": 0.04457917261055635, "candidate_token_count": 297, "d_event_mean": 0.210672065615654, "d_placebo_mean": 0.08750823885202408, "valid_event_frac": 0.6845703125, "kind": "river", "center_lonlat": [85.0120676, 27.810324], "rank_single_pair": 12, "candidate_token_frac_single_pair": 0.10592011412268189, "rank_pooled3": 24, "candidate_token_frac_pooled3": 0.04457917261055635, "place": "Galchhi, Galchhi", "review_status": "screened", "review_rank": null}, "geometry": {"type": "Polygon", "coordinates": [[[84.999291, 27.798588], [85.025264, 27.798962], [85.024846, 27.822059], [84.998868, 27.821685], [84.999291, 27.798588]]]}}, {"type": "Feature", "properties": {"id": "v006", "rank": 25, "status": "ranked", "candidate_token_frac": 0.04266572637517631, "candidate_token_count": 222, "d_event_mean": 0.16718196868896484, "d_placebo_mean": 0.1289677768945694, "valid_event_frac": 0.6923828125, "kind": "river", "center_lonlat": [85.3426869, 28.1713281], "rank_single_pair": 26, "candidate_token_frac_single_pair": 0.07827926657263752, "rank_pooled3": 25, "candidate_token_frac_pooled3": 0.04266572637517631, "place": "Shyaphru Bensi, Gosaikunda", "review_status": "screened", "review_rank": null}, "geometry": {"type": "Polygon", "coordinates": [[[85.329833, 28.15962], [85.355897, 28.159935], [85.355544, 28.183035], [85.329474, 28.182719], [85.329833, 28.15962]]]}}, {"type": "Feature", "properties": {"id": "v038", "rank": 26, "status": "ranked", "candidate_token_frac": 0.04197530864197531, "candidate_token_count": 297, "d_event_mean": 0.19475767016410828, "d_placebo_mean": 0.08470865339040756, "valid_event_frac": 0.889892578125, "kind": "river", "center_lonlat": [85.0172883, 27.8250274], "rank_single_pair": 22, "candidate_token_frac_single_pair": 0.08148148148148149, "rank_pooled3": 26, "candidate_token_frac_pooled3": 0.04197530864197531, "place": "Belkotgadhi", "review_status": "screened", "review_rank": null}, "geometry": {"type": "Polygon", "coordinates": [[[85.00451, 27.813292], [85.030486, 27.813665], [85.030069, 27.836762], [85.004087, 27.836388], [85.00451, 27.813292]]]}}, {"type": "Feature", "properties": {"id": "v012", "rank": 27, "status": "ranked", "candidate_token_frac": 0.0412682435832914, "candidate_token_count": 158, "d_event_mean": 0.18780513107776642, "d_placebo_mean": 0.15963192284107208, "valid_event_frac": 0.485107421875, "kind": "river", "center_lonlat": [85.2788483, 28.1111229], "rank_single_pair": 24, "candidate_token_frac_single_pair": 0.07951685958731756, "rank_pooled3": 27, "candidate_token_frac_pooled3": 0.0412682435832914, "place": "Gosaikunda, Gosaikunda", "review_status": "screened", "review_rank": null}, "geometry": {"type": "Polygon", "coordinates": [[[85.266008, 28.099409], [85.292057, 28.099736], [85.291691, 28.122835], [85.265637, 28.122508], [85.266008, 28.099409]]]}}, {"type": "Feature", "properties": {"id": "v001", "rank": 28, "status": "ranked", "candidate_token_frac": 0.03982777179763186, "candidate_token_count": 122, "d_event_mean": 0.18557684123516083, "d_placebo_mean": 0.15156197547912598, "valid_event_frac": 0.45361328125, "kind": "river", "center_lonlat": [85.3706772, 28.2609758], "rank_single_pair": 30, "candidate_token_frac_single_pair": 0.06566200215285253, "rank_pooled3": 28, "candidate_token_frac_pooled3": 0.03982777179763186, "place": "Gosaikunda", "review_status": "screened", "review_rank": null}, "geometry": {"type": "Polygon", "coordinates": [[[85.35781, 28.24927], [85.383896, 28.249581], [85.383548, 28.272681], [85.357455, 28.272369], [85.35781, 28.24927]]]}}, {"type": "Feature", "properties": {"id": "v008", "rank": 29, "status": "ranked", "candidate_token_frac": 0.034873949579831934, "candidate_token_count": 137, "d_event_mean": 0.1628160923719406, "d_placebo_mean": 0.13782371580600739, "valid_event_frac": 0.5810546875, "kind": "river", "center_lonlat": [85.3209984, 28.1492687], "rank_single_pair": 34, "candidate_token_frac_single_pair": 0.05756302521008403, "rank_pooled3": 29, "candidate_token_frac_pooled3": 0.034873949579831934, "place": "Brabal, Gosaikunda", "review_status": "screened", "review_rank": null}, "geometry": {"type": "Polygon", "coordinates": [[[85.308149, 28.137559], [85.334208, 28.137878], [85.33385, 28.160978], [85.307786, 28.160658], [85.308149, 28.137559]]]}}, {"type": "Feature", "properties": {"id": "v009", "rank": 30, "status": "ranked", "candidate_token_frac": 0.032355478861087146, "candidate_token_count": 131, "d_event_mean": 0.1617489904165268, "d_placebo_mean": 0.13713037967681885, "valid_event_frac": 0.56591796875, "kind": "river", "center_lonlat": [85.3076233, 28.1407319], "rank_single_pair": 35, "candidate_token_frac_single_pair": 0.05651423641069888, "rank_pooled3": 30, "candidate_token_frac_pooled3": 0.032355478861087146, "place": "Sano Bharkhu, Gosaikunda", "review_status": "screened", "review_rank": null}, "geometry": {"type": "Polygon", "coordinates": [[[85.294777, 28.129021], [85.320833, 28.129342], [85.320473, 28.152442], [85.294411, 28.15212], [85.294777, 28.129021]]]}}, {"type": "Feature", "properties": {"id": "v011", "rank": 31, "status": "ranked", "candidate_token_frac": 0.03230849400729546, "candidate_token_count": 114, "d_event_mean": 0.18908733129501343, "d_placebo_mean": 0.15446804463863373, "valid_event_frac": 0.468505859375, "kind": "river", "center_lonlat": [85.2911081, 28.1219667], "rank_single_pair": 33, "candidate_token_frac_single_pair": 0.0594059405940594, "rank_pooled3": 31, "candidate_token_frac_pooled3": 0.03230849400729546, "place": "Gosaikunda, Gosaikunda", "review_status": "screened", "review_rank": null}, "geometry": {"type": "Polygon", "coordinates": [[[85.278265, 28.110254], [85.304317, 28.110579], [85.303954, 28.133678], [85.277896, 28.133353], [85.278265, 28.110254]]]}}, {"type": "Feature", "properties": {"id": "v007", "rank": 32, "status": "ranked", "candidate_token_frac": 0.03192518542405676, "candidate_token_count": 199, "d_event_mean": 0.1694941222667694, "d_placebo_mean": 0.13554948568344116, "valid_event_frac": 0.757080078125, "kind": "river", "center_lonlat": [85.3339434, 28.1586316], "rank_single_pair": 31, "candidate_token_frac_single_pair": 0.06417284746855853, "rank_pooled3": 32, "candidate_token_frac_pooled3": 0.03192518542405676, "place": "Bahun Danda, Gosaikunda", "review_status": "screened", "review_rank": null}, "geometry": {"type": "Polygon", "coordinates": [[[85.321092, 28.146923], [85.347153, 28.14724], [85.346798, 28.170339], [85.320731, 28.170022], [85.321092, 28.146923]]]}}, {"type": "Feature", "properties": {"id": "v040", "rank": 33, "status": "ranked", "candidate_token_frac": 0.03135672151505744, "candidate_token_count": 217, "d_event_mean": 0.18909987807273865, "d_placebo_mean": 0.10537231713533401, "valid_event_frac": 0.786376953125, "kind": "river", "center_lonlat": [84.9883085, 27.805496], "rank_single_pair": 28, "candidate_token_frac_single_pair": 0.0673703818689848, "rank_pooled3": 33, "candidate_token_frac_pooled3": 0.03135672151505744, "place": "Galchhi, Galchhi", "review_status": "screened", "review_rank": null}, "geometry": {"type": "Polygon", "coordinates": [[[84.975536, 27.793758], [85.001507, 27.794136], [85.001084, 27.817233], [84.975107, 27.816854], [84.975536, 27.793758]]]}}, {"type": "Feature", "properties": {"id": "v033", "rank": 34, "status": "ranked", "candidate_token_frac": 0.030474040632054177, "candidate_token_count": 272, "d_event_mean": 0.18328723311424255, "d_placebo_mean": 0.16271904110908508, "valid_event_frac": 0.865234375, "kind": "river", "center_lonlat": [85.0891822, 27.8600385], "rank_single_pair": 27, "candidate_token_frac_single_pair": 0.07674943566591422, "rank_pooled3": 34, "candidate_token_frac_pooled3": 0.030474040632054177, "place": "Khadag Bhanjyang, Bidur", "review_status": "screened", "review_rank": null}, "geometry": {"type": "Polygon", "coordinates": [[[85.076392, 27.848309], [85.102378, 27.848669], [85.101975, 27.871767], [85.075984, 27.871406], [85.076392, 27.848309]]]}}, {"type": "Feature", "properties": {"id": "v013", "rank": 35, "status": "ranked", "candidate_token_frac": 0.028901734104046242, "candidate_token_count": 130, "d_event_mean": 0.1752428412437439, "d_placebo_mean": 0.15193195641040802, "valid_event_frac": 0.5068359375, "kind": "river", "center_lonlat": [85.2673244, 28.1024659], "rank_single_pair": 32, "candidate_token_frac_single_pair": 0.0626204238921002, "rank_pooled3": 35, "candidate_token_frac_pooled3": 0.028901734104046242, "place": "Gosaikunda, Gosaikunda", "review_status": "screened", "review_rank": null}, "geometry": {"type": "Polygon", "coordinates": [[[85.254487, 28.090751], [85.280533, 28.09108], [85.280165, 28.114179], [85.254113, 28.11385], [85.254487, 28.090751]]]}}, {"type": "Feature", "properties": {"id": "v010", "rank": 36, "status": "ranked", "candidate_token_frac": 0.028612997090203686, "candidate_token_count": 116, "d_event_mean": 0.1742202341556549, "d_placebo_mean": 0.1427212804555893, "valid_event_frac": 0.50341796875, "kind": "river", "center_lonlat": [85.300565, 28.1301279], "rank_single_pair": 36, "candidate_token_frac_single_pair": 0.05625606207565471, "rank_pooled3": 36, "candidate_token_frac_pooled3": 0.028612997090203686, "place": "Sano Bharkhu, Gosaikunda", "review_status": "screened", "review_rank": null}, "geometry": {"type": "Polygon", "coordinates": [[[85.28772, 28.118416], [85.313774, 28.118739], [85.313412, 28.141839], [85.287353, 28.141515], [85.28772, 28.118416]]]}}, {"type": "Feature", "properties": {"id": "v018", "rank": 37, "status": "ranked", "candidate_token_frac": 0.026969857218402962, "candidate_token_count": 102, "d_event_mean": 0.1743401288986206, "d_placebo_mean": 0.15300308167934418, "valid_event_frac": 0.461669921875, "kind": "river", "center_lonlat": [85.2079608, 28.0606393], "rank_single_pair": 37, "candidate_token_frac_single_pair": 0.053939714436805924, "rank_pooled3": 37, "candidate_token_frac_pooled3": 0.026969857218402962, "place": "Grang, Kalika", "review_status": "screened", "review_rank": null}, "geometry": {"type": "Polygon", "coordinates": [[[85.195135, 28.04892], [85.22117, 28.049259], [85.22079, 28.072358], [85.194749, 28.072018], [85.195135, 28.04892]]]}}, {"type": "Feature", "properties": {"id": "v035", "rank": 38, "status": "ranked", "candidate_token_frac": 0.02661810030820958, "candidate_token_count": 188, "d_event_mean": 0.1635851413011551, "d_placebo_mean": 0.13581006228923798, "valid_event_frac": 0.871337890625, "kind": "river", "center_lonlat": [85.0422379, 27.8567411], "rank_single_pair": 38, "candidate_token_frac_single_pair": 0.05267581955729896, "rank_pooled3": 38, "candidate_token_frac_pooled3": 0.02661810030820958, "place": "Ratmate, Belkotgadhi", "review_status": "screened", "review_rank": null}, "geometry": {"type": "Polygon", "coordinates": [[[85.029453, 27.845008], [85.055438, 27.845376], [85.055025, 27.868473], [85.029035, 27.868104], [85.029453, 27.845008]]]}}, {"type": "Feature", "properties": {"id": "v037", "rank": 39, "status": "ranked", "candidate_token_frac": 0.022697281604645025, "candidate_token_count": 157, "d_event_mean": 0.15481166541576385, "d_placebo_mean": 0.08490926027297974, "valid_event_frac": 0.925048828125, "kind": "river", "center_lonlat": [85.020553, 27.8393181], "rank_single_pair": 40, "candidate_token_frac_single_pair": 0.04143573502243336, "rank_pooled3": 39, "candidate_token_frac_pooled3": 0.022697281604645025, "place": "Taruka, Tarkeshwar", "review_status": "screened", "review_rank": null}, "geometry": {"type": "Polygon", "coordinates": [[[85.007773, 27.827583], [85.033753, 27.827955], [85.033336, 27.851052], [85.007351, 27.850679], [85.007773, 27.827583]]]}}, {"type": "Feature", "properties": {"id": "v005", "rank": 40, "status": "ranked", "candidate_token_frac": 0.022037779049799658, "candidate_token_count": 133, "d_event_mean": 0.14805351197719574, "d_placebo_mean": 0.11163957417011261, "valid_event_frac": 0.85302734375, "kind": "river", "center_lonlat": [85.3466022, 28.1887847], "rank_single_pair": 41, "candidate_token_frac_single_pair": 0.038065254722381224, "rank_pooled3": 40, "candidate_token_frac_pooled3": 0.022037779049799658, "place": "Aamachhodingmo, Aamachhodingmo", "review_status": "screened", "review_rank": null}, "geometry": {"type": "Polygon", "coordinates": [[[85.333746, 28.177077], [85.359814, 28.177392], [85.359462, 28.200491], [85.333387, 28.200176], [85.333746, 28.177077]]]}}, {"type": "Feature", "properties": {"id": "v036", "rank": 41, "status": "ranked", "candidate_token_frac": 0.020386550172094255, "candidate_token_count": 123, "d_event_mean": 0.14728647470474243, "d_placebo_mean": 0.10060679167509079, "valid_event_frac": 0.922119140625, "kind": "river", "center_lonlat": [85.0291674, 27.8501058], "rank_single_pair": 44, "candidate_token_frac_single_pair": 0.03256552819698173, "rank_pooled3": 41, "candidate_token_frac_pooled3": 0.020386550172094255, "place": "Taruka, Tarkeshwar", "review_status": "screened", "review_rank": null}, "geometry": {"type": "Polygon", "coordinates": [[[85.016385, 27.838371], [85.042368, 27.838742], [85.041953, 27.861839], [85.015964, 27.861468], [85.016385, 27.838371]]]}}, {"type": "Feature", "properties": {"id": "v014", "rank": 42, "status": "ranked", "candidate_token_frac": 0.017107309486780714, "candidate_token_count": 42, "d_event_mean": 0.16702991724014282, "d_placebo_mean": 0.13809962570667267, "valid_event_frac": 0.31396484375, "kind": "river", "center_lonlat": [85.2503065, 28.0927968], "rank_single_pair": 43, "candidate_token_frac_single_pair": 0.03265940902021773, "rank_pooled3": 42, "candidate_token_frac_pooled3": 0.017107309486780714, "place": "Aamachhodingmo", "review_status": "screened", "review_rank": null}, "geometry": {"type": "Polygon", "coordinates": [[[85.237472, 28.081081], [85.263516, 28.081413], [85.263144, 28.104512], [85.237094, 28.104179], [85.237472, 28.081081]]]}}, {"type": "Feature", "properties": {"id": "v042", "rank": 43, "status": "ranked", "candidate_token_frac": 0.014332965821389196, "candidate_token_count": 43, "d_event_mean": 0.21017737686634064, "d_placebo_mean": 0.2002166509628296, "valid_event_frac": 0.221435546875, "kind": "lhende", "center_lonlat": [85.40627929649673, 28.27611171006669], "rank_single_pair": 39, "candidate_token_frac_single_pair": 0.047409040793825796, "rank_pooled3": 43, "candidate_token_frac_pooled3": 0.014332965821389196, "place": "Gosaikunda", "review_status": "screened", "review_rank": null}, "geometry": {"type": "Polygon", "coordinates": [[[85.393406, 28.264409], [85.419497, 28.264713], [85.419155, 28.287813], [85.393059, 28.287509], [85.393406, 28.264409]]]}}, {"type": "Feature", "properties": {"id": "v017", "rank": 44, "status": "ranked", "candidate_token_frac": 0.014273719563392108, "candidate_token_count": 44, "d_event_mean": 0.1742263287305832, "d_placebo_mean": 0.1538490504026413, "valid_event_frac": 0.290771484375, "kind": "river", "center_lonlat": [85.2083079, 28.0710515], "rank_single_pair": 42, "candidate_token_frac_single_pair": 0.036943744752308987, "rank_pooled3": 44, "candidate_token_frac_pooled3": 0.014273719563392108, "place": "Grang, Kalika", "review_status": "screened", "review_rank": null}, "geometry": {"type": "Polygon", "coordinates": [[[85.19548, 28.059332], [85.221519, 28.059672], [85.221138, 28.08277], [85.195094, 28.08243], [85.19548, 28.059332]]]}}, {"type": "Feature", "properties": {"id": "v091", "rank": 45, "status": "ranked", "candidate_token_frac": 0.009907997169143666, "candidate_token_count": 25, "d_event_mean": 0.15000082552433014, "d_placebo_mean": 0.11790800094604492, "valid_event_frac": 0.344970703125, "kind": "hillslope", "center_lonlat": [85.57097337297763, 28.323259073230737], "rank_single_pair": 45, "candidate_token_frac_single_pair": 0.017692852087756547, "rank_pooled3": 45, "candidate_token_frac_pooled3": 0.009907997169143666, "place": "Qusumdo", "review_status": "screened", "review_rank": null}, "geometry": {"type": "Polygon", "coordinates": [[[85.558076, 28.311571], [85.58418, 28.311844], [85.583874, 28.334946], [85.557764, 28.334672], [85.558076, 28.311571]]]}}, {"type": "Feature", "properties": {"id": "v086", "rank": 46, "status": "ranked", "candidate_token_frac": 0.009, "candidate_token_count": 17, "d_event_mean": 0.17864105105400085, "d_placebo_mean": 0.11565303802490234, "valid_event_frac": 0.244140625, "kind": "hillslope", "center_lonlat": [85.57251379553108, 28.207750185422476], "rank_single_pair": 46, "candidate_token_frac_single_pair": 0.017, "rank_pooled3": 46, "candidate_token_frac_pooled3": 0.009, "place": "Ky\u0101\u1e45ji\u1e45 Gomp\u0101, Gosaikunda", "review_status": "screened", "review_rank": null}, "geometry": {"type": "Polygon", "coordinates": [[[85.559629, 28.196063], [85.585705, 28.196335], [85.585401, 28.219437], [85.559319, 28.219164], [85.559629, 28.196063]]]}}, {"type": "Feature", "properties": {"id": "v090", "rank": 47, "status": "ranked", "candidate_token_frac": 0.0032216494845360823, "candidate_token_count": 19, "d_event_mean": 0.15637314319610596, "d_placebo_mean": 0.14849691092967987, "valid_event_frac": 0.37890625, "kind": "hillslope", "center_lonlat": [85.57128218566064, 28.300157458167515], "rank_single_pair": 47, "candidate_token_frac_single_pair": 0.012242268041237113, "rank_pooled3": 47, "candidate_token_frac_pooled3": 0.0032216494845360823, "place": "Gosaikunda", "review_status": "screened", "review_rank": null}, "geometry": {"type": "Polygon", "coordinates": [[[85.558387, 28.288469], [85.584486, 28.288743], [85.58418, 28.311844], [85.558076, 28.311571], [85.558387, 28.288469]]]}}], "ordering": "features sorted by candidate_token_frac_pooled3 (share of 40 m cells beyond the ordinary range, three-pair threshold), descending"}