{"type": "FeatureCollection", "claim": "top windows from the 2 Sep neighbor-river extension scan (S2-only, single-placebo p99) \u2014 separate from the sealed six-lead funnel; review order, not damage", "threshold_placebo_p99": 0.30378522872924785, "scanned": 269, "ranked": 153, "features": [{"type": "Feature", "properties": {"id": "n142", "rank": 1, "candidate_token_frac": 0.1242, "valid_event_frac": 0.6782, "center_lonlat": [84.91564, 27.92042]}, "geometry": {"type": "Polygon", "coordinates": [[[84.90286273318004, 27.908675285404563], [84.92886036177435, 27.90906867288428], [84.9284200255338, 27.932163658876433], [84.90241687951183, 27.93176988971939], [84.90286273318004, 27.908675285404563]]]}}, {"type": "Feature", "properties": {"id": "n262", "rank": 2, "candidate_token_frac": 0.1214, "valid_event_frac": 0.2937, "center_lonlat": [85.3973, 28.29502]}, "geometry": {"type": "Polygon", "coordinates": [[[85.38442549410598, 28.283316352474543], [85.41052063633111, 28.28362257201344], [85.4101773211034, 28.306722528164176], [85.38407654845955, 28.306416014070372], [85.38442549410598, 28.283316352474543]]]}}, {"type": "Feature", "properties": {"id": "n205", "rank": 3, "candidate_token_frac": 0.0991, "valid_event_frac": 0.574, "center_lonlat": [84.90246, 27.90591]}, "geometry": {"type": "Polygon", "coordinates": [[[84.88968584063124, 27.894164209867395], [84.91567978232715, 27.894559895326164], [84.91523691593552, 27.917654736364796], [84.88923746110613, 27.91725866686824], [84.88968584063124, 27.894164209867395]]]}}, {"type": "Feature", "properties": {"id": "n052", "rank": 4, "candidate_token_frac": 0.0737, "valid_event_frac": 0.2783, "center_lonlat": [84.91909, 27.77814]}, "geometry": {"type": "Polygon", "coordinates": [[[84.90632795981524, 27.76639626816068], [84.93229175352927, 27.766787170632558], [84.93185477882892, 27.789882682955394], [84.9058855078266, 27.789491399908865], [84.90632795981524, 27.76639626816068]]]}}, {"type": "Feature", "properties": {"id": "n141", "rank": 5, "candidate_token_frac": 0.0669, "valid_event_frac": 0.4087, "center_lonlat": [84.93493, 27.93053]}, "geometry": {"type": "Polygon", "coordinates": [[[84.92214940921069, 27.91878691558527], [84.94814977384755, 27.919176793210884], [84.94771335107006, 27.942272026399646], [84.92170746587172, 27.941881770589426], [84.92214940921069, 27.91878691558527]]]}}, {"type": "Feature", "properties": {"id": "n241", "rank": 6, "candidate_token_frac": 0.0603, "valid_event_frac": 0.3562, "center_lonlat": [85.32671, 27.95796]}, "geometry": {"type": "Polygon", "coordinates": [[[85.31388177145088, 27.946251202601037], [85.33989452834788, 27.946567420870085], [85.33954099518948, 27.96966770172788], [85.31352270501179, 27.969351176857725], [85.31388177145088, 27.946251202601037]]]}}, {"type": "Feature", "properties": {"id": "n245", "rank": 7, "candidate_token_frac": 0.0601, "valid_event_frac": 0.3413, "center_lonlat": [85.42376, 27.784]}, "geometry": {"type": "Polygon", "coordinates": [[[85.41094033531184, 27.772300375617757], [85.43691285047997, 27.77259655960055], [85.436582407244, 27.795698528557995], [85.4106044069642, 27.795402056176144], [85.41094033531184, 27.772300375617757]]]}}, {"type": "Feature", "properties": {"id": "n038", "rank": 8, "candidate_token_frac": 0.06, "valid_event_frac": 0.342, "center_lonlat": [85.17471, 27.76862]}, "geometry": {"type": "Polygon", "coordinates": [[[85.16192003140102, 27.75689854272176], [85.18788553141542, 27.757241335951193], [85.1875027075709, 27.78034038523665], [85.1615317296127, 27.779997258142412], [85.16192003140102, 27.75689854272176]]]}}, {"type": "Feature", "properties": {"id": "n243", "rank": 9, "candidate_token_frac": 0.0548, "valid_event_frac": 0.2271, "center_lonlat": [85.17805, 27.79422]}, "geometry": {"type": "Polygon", "coordinates": [[[85.16525682408869, 27.782498732257395], [85.19122845018241, 27.782841187586993], [85.19084591851161, 27.805940194100998], [85.16486880721735, 27.805597405442583], [85.16525682408869, 27.782498732257395]]]}}, {"type": "Feature", "properties": {"id": "n050", "rank": 10, "candidate_token_frac": 0.0526, "valid_event_frac": 0.2783, "center_lonlat": [85.01425, 27.78475]}, "geometry": {"type": "Polygon", "coordinates": [[[85.00147641547979, 27.77301448890983], [85.02744331519222, 27.773387604010686], [85.02702632474245, 27.796484453071173], [85.00105394458559, 27.796110974749933], [85.00147641547979, 27.77301448890983]]]}}, {"type": "Feature", "properties": {"id": "n191", "rank": 11, "candidate_token_frac": 0.0508, "valid_event_frac": 0.4419, "center_lonlat": [85.44233, 27.91497]}, "geometry": {"type": "Polygon", "coordinates": [[[85.42949356654904, 27.903271600934126], [85.45549752002101, 27.90356556031389], [85.45516919462236, 27.926667294884886], [85.42915971880761, 27.926373050175002], [85.42949356654904, 27.903271600934126]]]}}, {"type": "Feature", "properties": {"id": "n028", "rank": 12, "candidate_token_frac": 0.0506, "valid_event_frac": 0.4053, "center_lonlat": [85.48781, 27.85648]}, "geometry": {"type": "Polygon", "coordinates": [[[85.47497504228896, 27.844785822061805], [85.50096558781944, 27.8450706527725], [85.50064771083495, 27.86817307252439], [85.47465165905663, 27.867887964947975], [85.47497504228896, 27.844785822061805]]]}}]}
