{"type":"FeatureCollection","license":"CC-BY-4.0 derived from ESA Copernicus Sentinel-2; OlmoEarth v1 Base (Ai2)","claim":"review priority from pooled three-pair ordinary-change calibration — not damage, cause, area, or probability","contract":{"score":"1 - cosine(z_before, z_after)","ordinary_threshold":"pooled p99 from three non-event fortnight transitions","minimum_observable_fraction_for_lead":0.4,"lead_deduplication":"one lead per place name"},"name":"olmoearth_nepal_rasuwa_2026_review_leads","features":[{"type":"Feature","properties":{"id":"v003","rank":1,"status":"ranked","candidate_token_frac":0.1331168831168831,"candidate_token_count":470,"d_event_mean":0.2569426894187927,"d_placebo_mean":0.10326941311359406,"valid_event_frac":0.451171875,"kind":"river","center_lonlat":[85.361097,28.2255196],"rank_single_pair":1,"candidate_token_frac_single_pair":0.25432900432900435,"rank_pooled3":1,"candidate_token_frac_pooled3":0.1331168831168831,"place":"Dalphedi, Gosaikunda","review_status":"lead","review_rank":1},"geometry":{"type":"Polygon","coordinates":[[[85.348235,28.213813],[85.374312,28.214125],[85.373962,28.237225],[85.347879,28.236912],[85.348235,28.213813]]]}},{"type":"Feature","properties":{"id":"v025","rank":3,"status":"ranked","candidate_token_frac":0.1316994344196068,"candidate_token_count":667,"d_event_mean":0.18391652405261993,"d_placebo_mean":0.11969434469938278,"valid_event_frac":0.906494140625,"kind":"river","center_lonlat":[85.1762602,27.9649438],"rank_single_pair":3,"candidate_token_frac_single_pair":0.17963910584433074,"rank_pooled3":3,"candidate_token_frac_pooled3":0.1316994344196068,"place":"Bhainse, Bidur","review_status":"lead","review_rank":2},"geometry":{"type":"Polygon","coordinates":[[[85.163448,27.953222],[85.189461,27.953566],[85.189075,27.976665],[85.163057,27.97632],[85.163448,27.953222]]]}},{"type":"Feature","properties":{"id":"v024","rank":4,"status":"ranked","candidate_token_frac":0.10683870967741936,"candidate_token_count":567,"d_event_mean":0.1627393662929535,"d_placebo_mean":0.10497783124446869,"valid_event_frac":0.946044921875,"kind":"river","center_lonlat":[85.1815317,27.9786895],"rank_single_pair":4,"candidate_token_frac_single_pair":0.1463225806451613,"rank_pooled3":4,"candidate_token_frac_pooled3":0.10683870967741936,"place":"Naubisephat, Uttargaya","review_status":"lead","review_rank":3},"geometry":{"type":"Polygon","coordinates":[[[85.168718,27.966968],[85.194733,27.967312],[85.194349,27.99041],[85.168327,27.990066],[85.168718,27.966968]]]}},{"type":"Feature","properties":{"id":"v027","rank":15,"status":"ranked","candidate_token_frac":0.08098318240620957,"candidate_token_count":401,"d_event_mean":0.1454230099916458,"d_placebo_mean":0.09091983735561371,"valid_event_frac":0.943603515625,"kind":"river","center_lonlat":[85.1552937,27.9336297],"rank_single_pair":15,"candidate_token_frac_single_pair":0.103751617076326,"rank_pooled3":15,"candidate_token_frac_pooled3":0.08098318240620957,"place":"Bidur","review_status":"lead","review_rank":4},"geometry":{"type":"Polygon","coordinates":[[[85.142488,27.921906],[85.168492,27.922254],[85.168103,27.945352],[85.142092,27.945004],[85.142488,27.921906]]]}},{"type":"Feature","properties":{"id":"v022","rank":10,"status":"ranked","candidate_token_frac":0.07295774647887324,"candidate_token_count":406,"d_event_mean":0.16348980367183685,"d_placebo_mean":0.08850929886102676,"valid_event_frac":0.86669921875,"kind":"river","center_lonlat":[85.1846652,28.0133953],"rank_single_pair":10,"candidate_token_frac_single_pair":0.1143661971830986,"rank_pooled3":10,"candidate_token_frac_pooled3":0.07295774647887324,"place":"Shanti Bazar, Kispang","review_status":"lead","review_rank":5},"geometry":{"type":"Polygon","coordinates":[[[85.171847,28.001674],[85.197871,28.002017],[85.197486,28.025116],[85.171457,28.024772],[85.171847,28.001674]]]}},{"type":"Feature","properties":{"id":"v002","rank":5,"status":"ranked","candidate_token_frac":0.0713417105796514,"candidate_token_count":346,"d_event_mean":0.21477912366390228,"d_placebo_mean":0.11853685230016708,"valid_event_frac":0.602294921875,"kind":"river","center_lonlat":[85.3581813,28.2411955],"rank_single_pair":5,"candidate_token_frac_single_pair":0.14025131738954194,"rank_pooled3":5,"candidate_token_frac_pooled3":0.0713417105796514,"place":"Timure, Gosaikunda","review_status":"lead","review_rank":6},"geometry":{"type":"Polygon","coordinates":[[[85.345317,28.229489],[85.371399,28.229802],[85.371048,28.252901],[85.344961,28.252588],[85.345317,28.229489]]]}}]}
